ORBCOMM-X               
1 21576U 91050C   25362.76145360  .00000429  00000+0  13959-3 0  9990
2 21576  98.3208  65.1721 0002879 335.3546  24.7506 14.43449000810181
ORBCOMM FM02            
1 23546U 95017B   25362.62048683  .00015606  00000+0  14296-2 0  9998
2 23546  69.9642 326.7708 0005840 338.7317  21.3596 14.94991510641178
ORBCOMM FM08            
1 25112U 97084A   25362.15907440  .00002149  00000+0  62908-3 0  9990
2 25112  45.0121 156.1698 0007222 156.4815 203.6368 14.46645327469453
ORBCOMM FM10            
1 25113U 97084B   25362.72330341  .00002077  00000+0  61267-3 0  9991
2 25113  45.0135 156.2011 0005323 129.7801 230.3520 14.46391465644674
ORBCOMM FM11            
1 25114U 97084C   25362.69310830  .00002198  00000+0  64946-3 0  9990
2 25114  45.0119 157.3398 0006144 129.7000 230.4394 14.46136952469628
ORBCOMM FM12            
1 25115U 97084D   25362.72189132  .00001932  00000+0  57547-3 0  9998
2 25115  45.0124 156.9312 0005230 129.0143 231.1175 14.46157197469429
ORBCOMM FM09            
1 25116U 97084E   25362.84192050  .00001832  00000+0  54963-3 0  9993
2 25116  45.0130 157.5029 0006194 116.6795 243.4691 14.45992942469641
